{
  "type": "FeatureCollection",
  "features": [
    {
      "type": "Feature",
      "properties": {
        "norad_id": 33986,
        "name": "COSMOS 2251 DEB",
        "group": "cosmos-2251-debris",
        "lat": 21.009775217891065,
        "lon": 121.63878297675454,
        "alt_km": 768.3912468026019,
        "timestamp": "2025-12-09T21:34:11.802745+00:00",
        "meta_object_name": "COSMOS 2251 DEB",
        "meta_object_id": "1993-036FV",
        "meta_epoch": "2025-12-08T23:28:28.723008",
        "meta_mean_motion": 14.43172512,
        "meta_eccentricity": 0.0040264,
        "meta_inclination": 74.037,
        "meta_ra_of_asc_node": 309.6592,
        "meta_arg_of_pericenter": 23.2183,
        "meta_mean_anomaly": 33.2913,
        "meta_ephemeris_type": 0,
        "meta_classification_type": "U",
        "meta_norad_cat_id": 33986,
        "meta_element_set_no": 999,
        "meta_rev_at_epoch": 87974,
        "meta_bstar": 0.0010835,
        "meta_mean_motion_dot": 3.652e-05,
        "meta_mean_motion_ddot": 0,
        "tle_line1": "1 33986U 93036FV  25342.97811022  .00003652  00000+0  10835-2 0  9990",
        "tle_line2": "2 33986  74.0370 309.6592 0040264  23.2183  33.2913 14.43172512879747"
      },
      "geometry": {
        "type": "Point",
        "coordinates": [
          121.63878297675454,
          21.009775217891065
        ]
      }
    },
    {
      "type": "Feature",
      "properties": {
        "norad_id": 33990,
        "name": "COSMOS 2251 DEB",
        "group": "cosmos-2251-debris",
        "lat": 73.06425429999722,
        "lon": 1.7556330728716694,
        "alt_km": 1266.301716261265,
        "timestamp": "2025-12-09T21:34:11.802756+00:00",
        "meta_object_name": "COSMOS 2251 DEB",
        "meta_object_id": "1993-036FZ",
        "meta_epoch": "2025-12-09T15:00:17.544384",
        "meta_mean_motion": 13.49978689,
        "meta_eccentricity": 0.04075751,
        "meta_inclination": 73.929,
        "meta_ra_of_asc_node": 290.9947,
        "meta_arg_of_pericenter": 311.8639,
        "meta_mean_anomaly": 240.3678,
        "meta_ephemeris_type": 0,
        "meta_classification_type": "U",
        "meta_norad_cat_id": 33990,
        "meta_element_set_no": 999,
        "meta_rev_at_epoch": 82687,
        "meta_bstar": 0.0024582019,
        "meta_mean_motion_dot": 2.596e-05,
        "meta_mean_motion_ddot": 0,
        "tle_line1": "1 33990U 93036FZ  25343.62520306  .00002596  00000+0  24582-2 0  9990",
        "tle_line2": "2 33990  73.9290 290.9947 0407575 311.8639 240.3678 13.49978689826870"
      },
      "geometry": {
        "type": "Point",
        "coordinates": [
          1.7556330728716694,
          73.06425429999722
        ]
      }
    },
    {
      "type": "Feature",
      "properties": {
        "norad_id": 33992,
        "name": "COSMOS 2251 DEB",
        "group": "cosmos-2251-debris",
        "lat": 39.66320686550767,
        "lon": 149.47564673029643,
        "alt_km": 640.4837627875922,
        "timestamp": "2025-12-09T21:34:11.802766+00:00",
        "meta_object_name": "COSMOS 2251 DEB",
        "meta_object_id": "1993-036GB",
        "meta_epoch": "2025-12-09T11:49:56.339616",
        "meta_mean_motion": 14.66172665,
        "meta_eccentricity": 0.00516318,
        "meta_inclination": 74.0242,
        "meta_ra_of_asc_node": 343.9985,
        "meta_arg_of_pericenter": 102.9112,
        "meta_mean_anomaly": 54.3806,
        "meta_ephemeris_type": 0,
        "meta_classification_type": "U",
        "meta_norad_cat_id": 33992,
        "meta_element_set_no": 999,
        "meta_rev_at_epoch": 89077,
        "meta_bstar": 0.0011108151,
        "meta_mean_motion_dot": 6.207e-05,
        "meta_mean_motion_ddot": 0,
        "tle_line1": "1 33992U 93036GB  25343.49301319  .00006207  00000+0  11108-2 0  9991",
        "tle_line2": "2 33992  74.0242 343.9985 0051631 102.9112  54.3806 14.66172665890771"
      },
      "geometry": {
        "type": "Point",
        "coordinates": [
          149.47564673029643,
          39.66320686550767
        ]
      }
    },
    {
      "type": "Feature",
      "properties": {
        "norad_id": 33994,
        "name": "COSMOS 2251 DEB",
        "group": "cosmos-2251-debris",
        "lat": -51.343862883608175,
        "lon": 174.70721469461446,
        "alt_km": 745.8144053562919,
        "timestamp": "2025-12-09T21:34:11.802776+00:00",
        "meta_object_name": "COSMOS 2251 DEB",
        "meta_object_id": "1993-036GD",
        "meta_epoch": "2025-12-09T09:19:07.967424",
        "meta_mean_motion": 14.41211887,
        "meta_eccentricity": 0.00235428,
        "meta_inclination": 74.0421,
        "meta_ra_of_asc_node": 196.6116,
        "meta_arg_of_pericenter": 331.5388,
        "meta_mean_anomaly": 206.9437,
        "meta_ephemeris_type": 0,
        "meta_classification_type": "U",
        "meta_norad_cat_id": 33994,
        "meta_element_set_no": 999,
        "meta_rev_at_epoch": 88371,
        "meta_bstar": 0.00015552159,
        "meta_mean_motion_dot": 4.77e-06,
        "meta_mean_motion_ddot": 0,
        "tle_line1": "1 33994U 93036GD  25343.38828666  .00000477  00000+0  15552-3 0  9991",
        "tle_line2": "2 33994  74.0421 196.6116 0023542 331.5388 206.9437 14.41211887883710"
      },
      "geometry": {
        "type": "Point",
        "coordinates": [
          174.70721469461446,
          -51.343862883608175
        ]
      }
    },
    {
      "type": "Feature",
      "properties": {
        "norad_id": 33995,
        "name": "COSMOS 2251 DEB",
        "group": "cosmos-2251-debris",
        "lat": 73.82583544018436,
        "lon": -155.29142155972087,
        "alt_km": 742.0101763365428,
        "timestamp": "2025-12-09T21:34:11.802786+00:00",
        "meta_object_name": "COSMOS 2251 DEB",
        "meta_object_id": "1993-036GE",
        "meta_epoch": "2025-12-09T11:07:25.075488",
        "meta_mean_motion": 14.34744652,
        "meta_eccentricity": 0.00603954,
        "meta_inclination": 74.0614,
        "meta_ra_of_asc_node": 125.3453,
        "meta_arg_of_pericenter": 140.6589,
        "meta_mean_anomaly": 219.8974,
        "meta_ephemeris_type": 0,
        "meta_classification_type": "U",
        "meta_norad_cat_id": 33995,
        "meta_element_set_no": 999,
        "meta_rev_at_epoch": 87472,
        "meta_bstar": 0.0016759618,
        "meta_mean_motion_dot": 4.825e-05,
        "meta_mean_motion_ddot": 0,
        "tle_line1": "1 33995U 93036GE  25343.46348467  .00004825  00000+0  16760-2 0  9999",
        "tle_line2": "2 33995  74.0614 125.3453 0060395 140.6589 219.8974 14.34744652874720"
      },
      "geometry": {
        "type": "Point",
        "coordinates": [
          -155.29142155972087,
          73.82583544018436
        ]
      }
    },
    {
      "type": "Feature",
      "properties": {
        "norad_id": 33999,
        "name": "COSMOS 2251 DEB",
        "group": "cosmos-2251-debris",
        "lat": 65.07293766740801,
        "lon": 18.076705198454892,
        "alt_km": 583.7715107976483,
        "timestamp": "2025-12-09T21:34:11.802796+00:00",
        "meta_object_name": "COSMOS 2251 DEB",
        "meta_object_id": "1993-036GJ",
        "meta_epoch": "2025-12-09T03:16:25.198464",
        "meta_mean_motion": 14.83233851,
        "meta_eccentricity": 0.00445867,
        "meta_inclination": 73.919,
        "meta_ra_of_asc_node": 237.9626,
        "meta_arg_of_pericenter": 134.6328,
        "meta_mean_anomaly": 225.85,
        "meta_ephemeris_type": 0,
        "meta_classification_type": "U",
        "meta_norad_cat_id": 33999,
        "meta_element_set_no": 999,
        "meta_rev_at_epoch": 89197,
        "meta_bstar": 0.0016195783,
        "meta_mean_motion_dot": 0.00013462,
        "meta_mean_motion_ddot": 0,
        "tle_line1": "1 33999U 93036GJ  25343.13640276  .00013462  00000+0  16196-2 0  9990",
        "tle_line2": "2 33999  73.9190 237.9626 0044586 134.6328 225.8500 14.83233851891977"
      },
      "geometry": {
        "type": "Point",
        "coordinates": [
          18.076705198454892,
          65.07293766740801
        ]
      }
    },
    {
      "type": "Feature",
      "properties": {
        "norad_id": 34001,
        "name": "COSMOS 2251 DEB",
        "group": "cosmos-2251-debris",
        "lat": -36.999255507357006,
        "lon": 119.26596912122614,
        "alt_km": 786.3487001936373,
        "timestamp": "2025-12-09T21:34:11.802807+00:00",
        "meta_object_name": "COSMOS 2251 DEB",
        "meta_object_id": "1993-036GL",
        "meta_epoch": "2025-12-09T07:46:23.862720",
        "meta_mean_motion": 14.37091996,
        "meta_eccentricity": 0.0019812,
        "meta_inclination": 74.0385,
        "meta_ra_of_asc_node": 287.8681,
        "meta_arg_of_pericenter": 9.6324,
        "meta_mean_anomaly": 116.2775,
        "meta_ephemeris_type": 0,
        "meta_classification_type": "U",
        "meta_norad_cat_id": 34001,
        "meta_element_set_no": 999,
        "meta_rev_at_epoch": 88097,
        "meta_bstar": 0.0003932,
        "meta_mean_motion_dot": 1.144e-05,
        "meta_mean_motion_ddot": 0,
        "tle_line1": "1 34001U 93036GL  25343.32388730  .00001144  00000+0  39320-3 0  9999",
        "tle_line2": "2 34001  74.0385 287.8681 0019812   9.6324 116.2775 14.37091996880972"
      },
      "geometry": {
        "type": "Point",
        "coordinates": [
          119.26596912122614,
          -36.999255507357006
        ]
      }
    }
  ]
}